OBJECT_NAME,OBJECT_ID,EPOCH,MEAN_MOTION,ECCENTRICITY,INCLINATION,RA_OF_ASC_NODE,ARG_OF_PERICENTER,MEAN_ANOMALY,EPHEMERIS_TYPE,CLASSIFICATION_TYPE,NORAD_CAT_ID,ELEMENT_SET_NO,REV_AT_EPOCH,BSTAR,MEAN_MOTION_DOT,MEAN_MOTION_DDOT
BEIDOU-3S IGSO-1S (C31),2015-019A,2026-07-02T19:12:21.705408,1.00680073,.00768606,49.1798,295.2769,219.1125,144.2493,0,U,40549,999,4123,0,-.19E-5,0
GPS BIIF-10 (PRN 08),2015-033A,2026-07-18T15:11:07.011456,2.00554643,.0115411,53.9587,265.7885,30.2892,330.4453,0,U,40730,999,8062,0,-.34E-6,0
BEIDOU-3S M2S (C58),2015-037A,2026-07-18T11:11:44.324736,1.86231856,.00094994,54.8412,300.9692,256.6146,103.3161,0,U,40748,999,7470,0,-.89E-6,0
BEIDOU-3S M1S (C57),2015-037B,2026-07-18T03:11:45.634848,1.86254870,.0002669,54.8378,300.9676,62.8642,297.1994,0,U,40749,999,7470,0,-.87E-6,0
GSAT0206 (GALILEO 10),2015-045B,2026-07-16T18:52:25.755744,1.70473544,.0002263,54.9385,220.7865,327.7315,32.3020,0,U,40890,999,6754,0,.48E-6,0
BEIDOU-3S IGSO-2S (C56),2015-053A,2026-07-19T03:21:06.573024,1.00252379,.00662477,49.1706,258.3992,193.4530,348.4251,0,U,40938,999,3967,0,-.108E-5,0
GPS BIIF-11 (PRN 10),2015-062A,2026-07-19T04:27:46.550016,2.00567035,.01130186,56.9811,29.5794,230.8613,128.1627,0,U,41019,999,7847,0,-.87E-6,0
GSAT-15 (GAGAN/PRN 139),2015-065A,2026-07-19T13:37:16.705344,1.00272131,.00035302,0.1062,263.6992,176.7800,154.6986,0,U,41028,999,3912,0,-.262E-5,0
GSAT0209 (GALILEO 12),2015-079A,2026-07-16T22:54:53.934624,1.70473553,.0004723,55.8441,100.4450,356.6958,3.3383,0,U,41174,999,6528,0,-.27E-6,0
GSAT0208 (GALILEO 11),2015-079B,2026-07-18T22:26:12.748992,1.70473492,.00042169,55.8429,100.3876,351.7596,8.2727,0,U,41175,999,6573,0,-.34E-6,0
IRNSS-1E,2016-003A,2026-07-18T14:25:22.354752,1.00276269,.0019245,33.2996,59.2938,176.3205,28.9297,0,U,41241,999,3839,0,-.316E-5,0
GPS BIIF-12 (PRN 32),2016-007A,2026-07-19T06:39:02.507904,2.00575263,.00966413,55.5436,88.1869,247.5846,111.4417,0,U,41328,999,7648,0,-.45E-6,0
COSMOS 2514 (751),2016-008A,2026-07-18T17:24:53.172288,2.13102626,.00124281,65.0007,311.9242,201.6103,158.3594,0,U,41330,999,8129,0,-.74E-6,0
BEIDOU-2 IGSO-6 (C13),2016-021A,2026-06-26T02:38:38.671584,1.00258926,.0057558,60.2385,37.9495,231.0163,137.2672,0,U,41434,999,3757,0,-.145E-5,0
IRNSS-1G,2016-027A,2026-07-19T13:47:38.210784,1.00268743,.00059322,5.2733,96.7251,12.6650,164.5318,0,U,41469,999,3750,0,-.341E-5,0
GSAT0211 (GALILEO 14),2016-030A,2026-07-16T17:05:27.607776,1.70473723,.00034382,55.0897,220.8821,318.8981,41.1241,0,U,41549,999,6317,0,.49E-6,0
GSAT0210 (GALILEO 13),2016-030B,2026-07-16T23:15:53.165376,1.70473885,.00047215,55.0882,220.8733,246.2569,113.7400,0,U,41550,999,6317,0,.48E-6,0
BEIDOU-2 G7 (C03),2016-037A,2026-07-19T14:17:28.540608,1.00271361,.00059749,1.7989,69.5452,0.4436,192.3184,0,U,41586,999,721,0,-.358E-5,0
EUTELSAT 117 WEST B (WAAS/PRN 131),2016-038B,2026-07-19T10:53:38.592096,1.00270716,.0000154,0.0069,154.1524,21.5477,167.9652,0,U,41589,999,3698,0,-.16E-6,0
GSAT0207 (GALILEO 15),2016-069A,2026-07-18T10:06:29.594304,1.70473613,.00045953,55.5165,100.2217,338.4837,21.5364,0,U,41859,999,5993,0,-.32E-6,0
GSAT0212 (GALILEO 16),2016-069B,2026-07-14T18:07:16.719168,1.70473579,.00043837,55.5126,100.3182,15.0007,345.0382,0,U,41860,999,6012,0,-.28E-6,0
GSAT0213 (GALILEO 17),2016-069C,2026-07-13T08:41:54.440160,1.70474037,.00041264,55.5134,100.3648,318.6741,41.3115,0,U,41861,999,5996,0,-.31E-6,0
GSAT0214 (GALILEO 18),2016-069D,2026-07-14T02:17:14.544672,1.70473685,.00032961,55.5122,100.3371,333.1197,26.8847,0,U,41862,999,6010,0,-.3E-6,0
SES-15 (WAAS/PRN 133),2017-026A,2026-07-19T10:51:07.882848,1.00276569,.00008141,0.0293,316.2493,174.8215,199.8057,0,U,42709,999,775,0,.55E-6,0
QZS-2 (QZSS/PRN 194),2017-028A,2026-07-19T10:28:17.573664,1.00275667,.07569995,39.3809,242.6784,269.6501,84.4438,0,U,42738,999,795,0,-.145E-5,0
QZS-3 (QZSS/PRN 199),2017-048A,2026-07-19T13:46:53.282784,1.00270418,.00027176,0.0602,208.8783,277.7897,144.4480,0,U,42917,999,3258,0,-.352E-5,0
COSMOS 2522 (752),2017-055A,2026-07-18T02:15:19.099584,2.13101776,.0010876,64.0809,190.8323,240.6480,119.2397,0,U,42939,999,6863,0,.6E-6,0
QZS-4 (QZSS/PRN 195),2017-062A,2026-07-19T11:40:05.330784,1.00289639,.07470493,40.0890,343.0732,268.6591,359.8851,0,U,42965,999,3212,0,-.359E-5,0
BEIDOU-3 M1 (C19),2017-069A,2026-07-15T01:18:53.436096,1.86230827,.00092673,56.7163,62.1672,328.5335,31.4861,0,U,43001,999,5912,0,-.4E-6,0
BEIDOU-3 M2 (C20),2017-069B,2026-07-17T03:23:50.222400,1.86231037,.00058447,56.7180,62.1334,63.7447,296.3868,0,U,43002,999,5915,0,-.54E-6,0
GSAT0215 (GALILEO 19),2017-079A,2026-07-19T06:39:33.391584,1.70474412,.00037426,55.0670,220.6230,269.1143,90.8812,0,U,43055,999,5353,0,.52E-6,0
